$$SOE
2460154.500000000, A.D. 2023-Jul-29 00:00:00.0000, -4.349906884878197E+08, 1.169785610390420E+08, 1.888381438809115E+07,
2460161.500000000, A.D. 2023-Aug-05 00:00:00.0000, -4.380482555739940E+08, 1.073826692020166E+08, 1.869223028427624E+07,
2460168.500000000, A.D. 2023-Aug-12 00:00:00.0000, -4.408746930042363E+08, 9.773008443686430E+07, 1.849078257496747E+07,
2460175.500000000, A.D. 2023-Aug-19 00:00:00.0000, -4.434693597639791E+08, 8.802608706100416E+07, 1.827961329283914E+07,
2460182.500000000, A.D. 2023-Aug-26 00:00:00.0000, -4.458317201719788E+08, 7.827594148073067E+07, 1.805886766522844E+07,
2460189.500000000, A.D. 2023-Sep-02 00:00:00.0000, -4.479613424172485E+08, 6.848489492384446E+07, 1.782869402339265E+07,
2460196.500000000, A.D. 2023-Sep-09 00:00:00.0000, -4.498578971136373E+08, 5.865817612503471E+07, 1.758924370354411E+07,
2460203.500000000, A.D. 2023-Sep-16 00:00:00.0000, -4.515211557050073E+08, 4.880099390261881E+07, 1.734067091947904E+07,
2460210.500000000, A.D. 2023-Sep-23 00:00:00.0000, -4.529509883056450E+08, 3.891853591010445E+07, 1.708313259206013E+07,
2460217.500000000, A.D. 2023-Sep-30 00:00:00.0000, -4.541473613161430E+08, 2.901596874978492E+07, 1.681678826403176E+07,
2460224.500000000, A.D. 2023-Oct-07 00:00:00.0000, -4.551103371698123E+08, 1.909843890161798E+07, 1.654180027170755E+07,
2460231.500000000, A.D. 2023-Oct-14 00:00:00.0000, -4.558400751725003E+08, 9.171071151066877E+06, 1.625833380746537E+07,
2460238.500000000, A.D. 2023-Oct-21 00:00:00.0000, -4.563368302082380E+08, -7.610338830579547E+05, 1.596655670812004E+07,
2460245.500000000, A.D. 2023-Oct-28 00:00:00.0000, -4.566009507334530E+08, -1.069280086340686E+07, 1.566663928474008E+07,
2460252.500000000, A.D. 2023-Nov-04 00:00:00.0000, -4.566328773095821E+08, -2.061918026622771E+07, 1.535875424570047E+07,
2460259.500000000, A.D. 2023-Nov-11 00:00:00.0000, -4.564331414981635E+08, -3.053514893433867E+07, 1.504307664777992E+07,
2460266.500000000, A.D. 2023-Nov-18 00:00:00.0000, -4.560023649001945E+08, -4.043571071792165E+07, 1.471978385010335E+07,
2460273.500000000, A.D. 2023-Nov-25 00:00:00.0000, -4.553412582674279E+08, -5.031589718319466E+07, 1.438905546627164E+07,
2460280.500000000, A.D. 2023-Dec-02 00:00:00.0000, -4.544506206577093E+08, -6.017076840298281E+07, 1.405107331129099E+07,
2460287.500000000, A.D. 2023-Dec-09 00:00:00.0000, -4.533313385569261E+08, -6.999541389091942E+07, 1.370602133138433E+07,
2460294.500000000, A.D. 2023-Dec-16 00:00:00.0000, -4.519843846804668E+08, -7.978495366926163E+07, 1.335408549130093E+07,
2460301.500000000, A.D. 2023-Dec-23 00:00:00.0000, -4.504108161057880E+08, -8.953453878494740E+07, 1.299545364322950E+07,
2460308.500000000, A.D. 2023-Dec-30 00:00:00.0000, -4.486117730755221E+08, -9.923935022646052E+07, 1.263031558578149E+07,
2460315.500000000, A.D. 2024-Jan-06 00:00:00.0000, -4.465884802426912E+08, -1.088945986044354E+08, 1.225886328237416E+07,
2460322.500000000, A.D. 2024-Jan-13 00:00:00.0000, -4.443422471849058E+08, -1.184955264049797E+08, 1.188129080002963E+07,
2460329.500000000, A.D. 2024-Jan-20 00:00:00.0000, -4.418744669619514E+08, -1.280374097326912E+08, 1.149779410822535E+07,
2460336.500000000, A.D. 2024-Jan-27 00:00:00.0000, -4.391866147422768E+08, -1.375155588942162E+08, 1.110857097686642E+07,
2460343.500000000, A.D. 2024-Feb-03 00:00:00.0000, -4.362802469258479E+08, -1.469253187757438E+08, 1.071382093470263E+07,
2460350.500000000, A.D. 2024-Feb-10 00:00:00.0000, -4.331570004878182E+08, -1.562620693097865E+08, 1.031374523855574E+07,
2460357.500000000, A.D. 2024-Feb-17 00:00:00.0000, -4.298185924064851E+08, -1.655212260258054E+08, 9.908546841022514E+06,
2460364.500000000, A.D. 2024-Feb-24 00:00:00.0000, -4.262668191404985E+08, -1.746982406713074E+08, 9.498430354386859E+06,
2460371.500000000, A.D. 2024-Mar-02 00:00:00.0000, -4.225035561256453E+08, -1.837886019372439E+08, 9.083602005243860E+06,
2460378.500000000, A.D. 2024-Mar-09 00:00:00.0000, -4.185307571514482E+08, -1.927878363521451E+08, 8.664269561824694E+06,
2460385.500000000, A.D. 2024-Mar-16 00:00:00.0000, -4.143504532211098E+08, -2.016915091494628E+08, 8.240642213762514E+06,
2460392.500000000, A.D. 2024-Mar-23 00:00:00.0000, -4.099647509969175E+08, -2.104952240007541E+08, 7.812930504313588E+06,
2460399.500000000, A.D. 2024-Mar-30 00:00:00.0000, -4.053758330704690E+08, -2.191946216433911E+08, 7.381346518245623E+06,
2460406.500000000, A.D. 2024-Apr-06 00:00:00.0000, -4.005859598007762E+08, -2.277853807730965E+08, 6.946104026483223E+06,
2460413.500000000, A.D. 2024-Apr-13 00:00:00.0000, -3.955974691694224E+08, -2.362632203670748E+08, 6.507418330038235E+06,
2460420.500000000, A.D. 2024-Apr-20 00:00:00.0000, -3.904127756039156E+08, -2.446239007616539E+08, 6.065506109318540E+06,
2460427.500000000, A.D. 2024-Apr-27 00:00:00.0000, -3.850343692834043E+08, -2.528632240463576E+08, 5.620585372050762E+06,
2460434.500000000, A.D. 2024-May-04 00:00:00.0000, -3.794648158358600E+08, -2.609770344795969E+08, 5.172875434152097E+06,
2460441.500000000, A.D. 2024-May-11 00:00:00.0000, -3.737067561864542E+08, -2.689612190304629E+08, 4.722596903289035E+06,
2460448.500000000, A.D. 2024-May-18 00:00:00.0000, -3.677629064741173E+08, -2.768117080276448E+08, 4.269971659412324E+06,
2460455.500000000, A.D. 2024-May-25 00:00:00.0000, -3.616360580108249E+08, -2.845244759248447E+08, 3.815222829558909E+06,
2460462.500000000, A.D. 2024-Jun-01 00:00:00.0000, -3.553290772230387E+08, -2.920955422420663E+08, 3.358574746915415E+06,
2460469.500000000, A.D. 2024-Jun-08 00:00:00.0000, -3.488449053281745E+08, -2.995209727074369E+08, 2.900252869854838E+06,
2460476.500000000, A.D. 2024-Jun-15 00:00:00.0000, -3.421865573456277E+08, -3.067968800558311E+08, 2.440483669034019E+06,
2460483.500000000, A.D. 2024-Jun-22 00:00:00.0000, -3.353571214460065E+08, -3.139194233100623E+08, 1.979494670961156E+06,
2460490.500000000, A.D. 2024-Jun-29 00:00:00.0000, -3.283597607579198E+08, -3.208848073666379E+08, 1.517514703904793E+06,
2460497.500000000, A.D. 2024-Jul-06 00:00:00.0000, -3.211977149857163E+08, -3.276892853596327E+08, 1.054773901586816E+06,
2460504.500000000, A.D. 2024-Jul-13 00:00:00.0000, -3.138742998882892E+08, -3.343291609808676E+08, 5.915035167189091E+05,
2460511.500000000, A.D. 2024-Jul-20 00:00:00.0000, -3.063929066031818E+08, -3.408007896086692E+08, 1.279358204634935E+05,
2460518.500000000, A.D. 2024-Jul-27 00:00:00.0000, -2.987570014694409E+08, -3.471005792053373E+08, -3.356959304898530E+05,
2460525.500000000, A.D. 2024-Aug-03 00:00:00.0000, -2.909701260733643E+08, -3.532249913595963E+08, -7.991575151589811E+05,
2460532.500000000, A.D. 2024-Aug-10 00:00:00.0000, -2.830358973488378E+08, -3.591705424805787E+08, -1.262213773750365E+06,
2460539.500000000, A.D. 2024-Aug-17 00:00:00.0000, -2.749580076830946E+08, -3.649338051238979E+08, -1.724628640333548E+06,
2460546.500000000, A.D. 2024-Aug-24 00:00:00.0000, -2.667402249986187E+08, -3.705114094739251E+08, -2.186165187441200E+06,
2460553.500000000, A.D. 2024-Aug-31 00:00:00.0000, -2.583863926941372E+08, -3.759000450449760E+08, -2.646585698560745E+06,
2460560.500000000, A.D. 2024-Sep-07 00:00:00.0000, -2.499004290775607E+08, -3.810964624754968E+08, -3.105651792023808E+06,
2460567.500000000, A.D. 2024-Sep-14 00:00:00.0000, -2.412863262033488E+08, -3.860974744187880E+08, -3.563124522975326E+06,
2460574.500000000, A.D. 2024-Sep-21 00:00:00.0000, -2.325481501393690E+08, -3.908999551161652E+08, -4.018764243859679E+06,
2460581.500000000, A.D. 2024-Sep-28 00:00:00.0000, -2.236900431453874E+08, -3.955008418796278E+08, -4.472330442835718E+06,
2460588.500000000, A.D. 2024-Oct-05 00:00:00.0000, -2.147162240886201E+08, -3.998971384846289E+08, -4.923581897006959E+06,
2460595.500000000, A.D. 2024-Oct-12 00:00:00.0000, -2.056309874538099E+08, -4.040859174963455E+08, -5.372276864183605E+06,
2460602.500000000, A.D. 2024-Oct-19 00:00:00.0000, -1.964387026965516E+08, -4.080643218029988E+08, -5.818173174940348E+06,
2460609.500000000, A.D. 2024-Oct-26 00:00:00.0000, -1.871438139702332E+08, -4.118295661591689E+08, -6.261028287663966E+06,
2460616.500000000, A.D. 2024-Nov-02 00:00:00.0000, -1.777508399666872E+08, -4.153789388879994E+08, -6.700599342463732E+06,
2460623.500000000, A.D. 2024-Nov-09 00:00:00.0000, -1.682643737705784E+08, -4.187098037217845E+08, -7.136643221252769E+06,
2460630.500000000, A.D. 2024-Nov-16 00:00:00.0000, -1.586890826978654E+08, -4.218196017810372E+08, -7.568916616464406E+06,
2460637.500000000, A.D. 2024-Nov-23 00:00:00.0000, -1.490297080676064E+08, -4.247058537423247E+08, -7.997176116839945E+06,
2460644.500000000, A.D. 2024-Nov-30 00:00:00.0000, -1.392910646949311E+08, -4.273661622377051E+08, -8.421178332891345E+06,
2460651.500000000, A.D. 2024-Dec-07 00:00:00.0000, -1.294780396817105E+08, -4.297982140651256E+08, -8.840680066135973E+06,
2460658.500000000, A.D. 2024-Dec-14 00:00:00.0000, -1.195955911893586E+08, -4.319997809853293E+08, -9.255438358894885E+06,
2460665.500000000, A.D. 2024-Dec-21 00:00:00.0000, -1.096487495075314E+08, -4.339687203448132E+08, -9.665210313388258E+06,
2460672.500000000, A.D. 2024-Dec-28 00:00:00.0000, -9.964261844075780E+07, -4.357029784915458E+08, -1.006975310361910E+07,
2460679.500000000, A.D. 2025-Jan-04 00:00:00.0000, -8.958237441081508E+07, -4.372005946080871E+08, -1.046882422409713E+07,
2460686.500000000, A.D. 2025-Jan-11 00:00:00.0000, -7.947326509179731E+07, -4.384597033026867E+08, -1.086218167259264E+07,
2460693.500000000, A.D. 2025-Jan-18 00:00:00.0000, -6.932060849028637E+07, -4.394785368764253E+08, -1.124958405773479E+07,
2460700.500000000, A.D. 2025-Jan-25 00:00:00.0000, -5.912979222227283E+07, -4.402554277395784E+08, -1.163079069240913E+07,
2460707.500000000, A.D. 2025-Feb-01 00:00:00.0000, -4.890627279208394E+07, -4.407888110055326E+08, -1.200556169267187E+07,
2460714.500000000, A.D. 2025-Feb-08 00:00:00.0000, -3.865557480917904E+07, -4.410772272406939E+08, -1.237365808587712E+07,
$$EOE